[{"OBJECT_NAME":"LEMUR-2-DEMBITZ","OBJECT_ID":"2017-042T","EPOCH":"2026-03-09T11:23:53.232288","MEAN_MOTION":15.26947128,"ECCENTRICITY":0.00069617,"INCLINATION":97.3807,"RA_OF_ASC_NODE":250.9241,"ARG_OF_PERICENTER":17.1421,"MEAN_ANOMALY":343.0051,"EPHEMERIS_TYPE":0,"CLASSIFICATION_TYPE":"U","NORAD_CAT_ID":42842,"ELEMENT_SET_NO":999,"REV_AT_EPOCH":47311,"BSTAR":0.00076560825,"MEAN_MOTION_DOT":0.00020231,"MEAN_MOTION_DDOT":0},{"OBJECT_NAME":"STARLINK-33611","OBJECT_ID":"2025-053Q","EPOCH":"2026-03-08T12:00:37.467360","MEAN_MOTION":15.27634247,"ECCENTRICITY":0.00015402,"INCLINATION":42.9988,"RA_OF_ASC_NODE":244.8488,"ARG_OF_PERICENTER":262.4035,"MEAN_ANOMALY":97.6642,"EPHEMERIS_TYPE":0,"CLASSIFICATION_TYPE":"U","NORAD_CAT_ID":63279,"ELEMENT_SET_NO":999,"REV_AT_EPOCH":5616,"BSTAR":0.0014419719,"MEAN_MOTION_DOT":0.00039698,"MEAN_MOTION_DDOT":0}]
