LEMUR-2-DEMBITZ         
1 42842U 17042T   26068.47492167  .00020231  00000+0  76561-3 0  9991
2 42842  97.3807 250.9241 0006961  17.1421 343.0051 15.26947128473114
STARLINK-33611          
1 63279U 25053Q   26067.50043365  .00039698  00000+0  14420-2 0  9996
2 63279  42.9988 244.8488 0001540 262.4035  97.6642 15.27634247 56162
